NORAD_CAT_ID,OBJECT_NAME,OBJECT_TYPE,EPOCH,MEAN_MOTION,ECCENTRICITY,INCLINATION,RA_OF_ASC_NODE,ARG_OF_PERICENTER,MEAN_ANOMALY,BSTAR,MEAN_MOTION_DOT,MEAN_MOTION_DDOT,TLE_LINE0,TLE_LINE1,TLE_LINE2,SEMIMAJOR_AXIS,PERIOD,APOGEE,PERIGEE,DECAYED
51890.0,STARLINK-3519,PAYLOAD,2023-09-21 18:42:38,15.0959344,0.0001558,53.218,77.9045,89.0409,271.0762,0.00092637,0.00014793,0.0,0 STARLINK-3519,1 51890U 22022AQ  23264.77960817  .00014793  00000-0  92637-3 0  9997,2 51890  53.2180  77.9045 0001558  89.0409 271.0762 15.09593440 87409,6915.578,95.39,538.521,536.366,0.0
51890.0,STARLINK-3519,PAYLOAD,2023-09-22 04:14:38,15.09645678,0.0001295,53.218,76.1196,87.1774,272.9367,3.0372e-05,2.04e-06,0.0,0 STARLINK-3519,1 51890U 22022AQ  23265.17683069  .00000204  00000-0  30372-4 0  9994,2 51890  53.2180  76.1196 0001295  87.1774 272.9367 15.09645678 87467,6915.419,95.387,538.179,536.388,0.0
51890.0,STARLINK-3519,PAYLOAD,2023-09-22 10:35:58,15.09647533,0.0001284,53.218,74.9279,88.7042,271.4097,2.4094e-05,1.02e-06,0.0,0 STARLINK-3519,1 51890U 22022AQ  23265.44164749  .00000102  00000-0  24094-4 0  9994,2 51890  53.2180  74.9279 0001284  88.7042 271.4097 15.09647533 87509,6915.413,95.387,538.166,536.39,0.0
51890.0,STARLINK-3519,PAYLOAD,2023-09-22 18:32:38,15.09656115,0.0001237,53.2182,73.4408,86.3758,273.7376,8.1588e-05,1.038e-05,0.0,0 STARLINK-3519,1 51890U 22022AQ  23265.77266212  .00001038  00000-0  81588-4 0  9998,2 51890  53.2182  73.4408 0001237  86.3758 273.7376 15.09656115 87551,6915.387,95.386,538.107,536.397,0.0
51890.0,STARLINK-3519,PAYLOAD,2023-09-22 21:43:17,15.09658849,0.0001262,53.2183,72.8453,84.6358,275.4778,0.00010167,1.365e-05,0.0,0 STARLINK-3519,1 51890U 22022AQ  23265.90506827  .00001365  00000-0  10167-3 0  9999,2 51890  53.2183  72.8453 0001262  84.6358 275.4778 15.09658849 87573,6915.379,95.386,538.116,536.371,0.0
51890.0,STARLINK-3519,PAYLOAD,2023-09-23 04:04:38,15.09660311,0.0001287,53.2183,71.655,82.8135,277.3004,8.6547e-05,1.119e-05,0.0,0 STARLINK-3519,1 51890U 22022AQ  23266.16988432  .00001119  00000-0  86547-4 0  9997,2 51890  53.2183  71.6550 0001287  82.8135 277.3004 15.09660311 87613,6915.374,95.386,538.129,536.349,0.0
51890.0,STARLINK-3519,PAYLOAD,2023-09-23 19:57:58,15.09658607,0.0001349,53.2199,68.6794,88.9234,271.1913,1.3936e-05,-6.3e-07,0.0,0 STARLINK-3519,1 51890U 22022AQ  23266.83192917 -.00000063  00000-0  13936-4 0  9996,2 51890  53.2199  68.6794 0001349  88.9234 271.1913 15.09658607 87719,6915.379,95.386,538.177,536.311,0.0
51890.0,STARLINK-3519,PAYLOAD,2023-09-24 11:51:18,15.09658292,0.0001345,53.2196,65.7043,92.8251,267.2896,6.3529e-05,7.44e-06,0.0,0 STARLINK-3519,1 51890U 22022AQ  23267.49396976  .00000744  00000-0  63529-4 0  9998,2 51890  53.2196  65.7043 0001345  92.8251 267.2896 15.09658292 87817,6915.38,95.386,538.175,536.315,0.0
51890.0,STARLINK-3519,PAYLOAD,2023-09-24 18:12:39,15.09661915,0.0001263,53.2193,64.5128,87.2199,272.8938,3.3326e-05,2.52e-06,0.0,0 STARLINK-3519,1 51890U 22022AQ  23267.75878482  .00000252  00000-0  33326-4 0  9990,2 51890  53.2193  64.5128 0001263  87.2199 272.8938 15.09661915 87852,6915.369,95.386,538.108,536.361,0.0
51890.0,STARLINK-3519,PAYLOAD,2023-09-25 03:44:39,15.09663696,0.0001286,53.2195,62.7274,82.9856,277.1283,3.0393e-05,2.05e-06,0.0,0 STARLINK-3519,1 51890U 22022AQ  23268.15600797  .00000205  00000-0  30393-4 0  9996,2 51890  53.2195  62.7274 0001286  82.9856 277.1283 15.09663696 87919,6915.364,95.385,538.118,536.34,0.0
51890.0,STARLINK-3519,PAYLOAD,2023-09-25 18:02:39,15.09663799,0.0001231,53.2193,60.0492,83.0036,277.1097,8.2418e-05,1.052e-05,0.0,0 STARLINK-3519,1 51890U 22022AQ  23268.75184267  .00001052  00000-0  82418-4 0  9997,2 51890  53.2193  60.0492 0001231  83.0036 277.1097 15.09663799 88000,6915.364,95.385,538.08,536.377,0.0
51890.0,STARLINK-3519,PAYLOAD,2023-09-26 14:42:00,15.09656363,0.0001241,53.2194,56.1814,80.7164,279.3969,5.3505e-06,-2.03e-06,0.0,0 STARLINK-3519,1 51890U 22022AQ  23269.61250271 -.00000203  00000-0  53505-5 0  9996,2 51890  53.2194  56.1814 0001241  80.7164 279.3969 15.09656363 88137,6915.386,95.386,538.109,536.393,0.0
51890.0,STARLINK-3519,PAYLOAD,2023-09-26 16:17:20,15.09658726,0.0001186,53.2182,55.8831,84.096,276.0168,1.5169e-05,-4.3e-07,0.0,0 STARLINK-3519,1 51890U 22022AQ  23269.67870465 -.00000043  00000-0  15169-4 0  9990,2 51890  53.2182  55.8831 0001186  84.0960 276.0168 15.09658726 88149,6915.379,95.386,538.064,536.424,0.0
51890.0,STARLINK-3519,PAYLOAD,2023-09-26 19:27:59,15.09664806,0.0001212,53.2181,55.2872,87.1005,273.0126,6.4709e-05,7.63e-06,0.0,0 STARLINK-3519,1 51890U 22022AQ  23269.81110712  .00000763  00000-0  64709-4 0  9990,2 51890  53.2181  55.2872 0001212  87.1005 273.0126 15.09664806 88160,6915.36,95.385,538.064,536.387,0.0
51890.0,STARLINK-3519,PAYLOAD,2023-09-27 09:45:59,15.09663089,0.0001393,53.2203,52.6094,100.482,259.633,6.1808e-05,7.16e-06,0.0,0 STARLINK-3519,1 51890U 22022AQ  23270.40694352  .00000716  00000-0  61808-4 0  9999,2 51890  53.2203  52.6094 0001393 100.4820 259.6330 15.09663089 88255,6915.366,95.386,538.194,536.267,0.0
51890.0,STARLINK-3519,PAYLOAD,2023-09-27 16:07:20,15.09655776,0.0001583,53.2225,51.4202,87.6782,272.4392,-2.486e-05,-6.95e-06,0.0,0 STARLINK-3519,1 51890U 22022AQ  23270.67176760 -.00000695  00000-0 -24860-4 0  9991,2 51890  53.2225  51.4202 0001583  87.6782 272.4392 15.09655776 88290,6915.388,95.386,538.348,536.158,0.0
51890.0,STARLINK-3519,PAYLOAD,2023-09-28 14:22:01,15.09655081,0.0001351,53.2206,47.2533,89.8679,270.2468,-4.5614e-05,-1.033e-05,0.0,0 STARLINK-3519,1 51890U 22022AQ  23271.59862804 -.00001033  00000-0 -45614-4 0  9991,2 51890  53.2206  47.2533 0001351  89.8679 270.2468 15.09655081 88436,6915.39,95.386,538.189,536.321,0.0
51890.0,STARLINK-3519,PAYLOAD,2023-09-28 15:57:21,15.09654868,0.0001343,53.2205,46.9558,89.598,270.5166,-4.6836e-05,-1.052e-05,0.0,0 STARLINK-3519,1 51890U 22022AQ  23271.66483237 -.00001052  00000-0 -46836-4 0  9996,2 51890  53.2205  46.9558 0001343  89.5980 270.5166 15.09654868 88442,6915.391,95.386,538.185,536.327,0.0
51890.0,STARLINK-3519,PAYLOAD,2023-09-29 09:26:01,15.0965384,0.0001288,53.2204,43.6828,85.6931,274.4209,9.9382e-05,1.328e-05,0.0,0 STARLINK-3519,1 51890U 22022AQ  23272.39307360  .00001328  00000-0  99382-4 0  9997,2 51890  53.2204  43.6828 0001288  85.6931 274.4209 15.09653840 88558,6915.394,95.386,538.15,536.368,0.0
51890.0,STARLINK-3519,PAYLOAD,2023-09-29 14:12:01,15.09657211,0.0001285,53.2201,42.7901,85.1122,275.0017,0.00012451,1.737e-05,0.0,0 STARLINK-3519,1 51890U 22022AQ  23272.59168360  .00001737  00000-0  12451-3 0  9999,2 51890  53.2201  42.7901 0001285  85.1122 275.0017 15.09657211 88584,6915.384,95.386,538.137,536.36,0.0
51890.0,STARLINK-3519,PAYLOAD,2023-09-30 15:37:22,15.09648189,0.0001257,53.2195,38.0285,88.4476,271.666,3.7268e-05,3.16e-06,0.0,0 STARLINK-3519,1 51890U 22022AQ  23273.65095805  .00000316  00000-0  37268-4 0  9996,2 51890  53.2195  38.0285 0001257  88.4476 271.6660 15.09648189 88744,6915.411,95.386,538.145,536.407,0.0
51890.0,STARLINK-3519,PAYLOAD,2023-10-01 01:09:22,15.0965741,0.0001299,53.2199,36.2433,88.0878,272.0263,6.2118e-05,7.21e-06,0.0,0 STARLINK-3519,1 51890U 22022AQ  23274.04817700  .00000721  00000-0  62118-4 0  9998,2 51890  53.2199  36.2433 0001299  88.0878 272.0263 15.09657410 88809,6915.383,95.386,538.146,536.35,0.0
51890.0,STARLINK-3519,PAYLOAD,2023-10-01 12:16:43,15.09651157,0.000143,53.2208,34.161,94.9073,265.2083,8.7608e-06,-1.48e-06,0.0,0 STARLINK-3519,1 51890U 22022AQ  23274.51161209 -.00000148  00000-0  87608-5 0  9992,2 51890  53.2208  34.1610 0001430  94.9073 265.2083 15.09651157 88877,6915.402,95.386,538.256,536.278,0.0
51890.0,STARLINK-3519,PAYLOAD,2023-10-01 17:02:43,15.09652097,0.0001356,53.2203,33.2678,90.0325,270.0823,-5.1074e-05,-1.121e-05,0.0,0 STARLINK-3519,1 51890U 22022AQ  23274.71022583 -.00001121  00000-0 -51074-4 0  9995,2 51890  53.2203  33.2678 0001356  90.0325 270.0823 15.09652097 88904,6915.399,95.386,538.202,536.327,0.0
51890.0,STARLINK-3519,PAYLOAD,2023-10-02 00:59:22,15.09662172,0.0001212,53.2189,31.7807,77.2034,282.9094,5.8561e-05,6.63e-06,0.0,0 STARLINK-3519,1 51890U 22022AQ  23275.04123669  .00000663  00000-0  58561-4 0  9995,2 51890  53.2189  31.7807 0001212  77.2034 282.9094 15.09662172 88951,6915.368,95.386,538.072,536.395,0.0
51890.0,STARLINK-3519,PAYLOAD,2023-10-02 15:17:23,15.09652424,0.0001413,53.2196,29.1029,79.5982,280.517,8.3071e-05,1.062e-05,0.0,0 STARLINK-3519,1 51890U 22022AQ  23275.63707968  .00001062  00000-0  83071-4 0  9998,2 51890  53.2196  29.1029 0001413  79.5982 280.5170 15.09652424 89045,6915.398,95.386,538.24,536.286,0.0
51890.0,STARLINK-3519,PAYLOAD,2023-10-03 00:49:23,15.09665898,0.0001511,53.2209,27.318,83.4301,276.6864,0.00011423,1.57e-05,0.0,0 STARLINK-3519,1 51890U 22022AQ  23276.03429479  .00001570  00000-0  11423-3 0  9996,2 51890  53.2209  27.3180 0001511  83.4301 276.6864 15.09665898 89108,6915.357,95.385,538.267,536.177,0.0
51890.0,STARLINK-3519,PAYLOAD,2023-10-03 13:32:03,15.09662638,0.0001329,53.2199,24.9365,85.8367,274.2777,0.00012233,1.702e-05,0.0,0 STARLINK-3519,1 51890U 22022AQ  23276.56392707  .00001702  00000-0  12233-3 0  9994,2 51890  53.2199  24.9365 0001329  85.8367 274.2777 15.09662638 89183,6915.367,95.386,538.151,536.313,0.0
51890.0,STARLINK-3519,PAYLOAD,2023-10-03 15:07:23,15.0966134,0.0001331,53.2201,24.639,88.22,271.8945,0.0001367,1.936e-05,0.0,0 STARLINK-3519,1 51890U 22022AQ  23276.63013123  .00001936  00000-0  13670-3 0  9999,2 51890  53.2201  24.6390 0001331  88.2200 271.8945 15.09661340 89198,6915.371,95.386,538.156,536.316,0.0
51890.0,STARLINK-3519,PAYLOAD,2023-10-04 07:00:44,15.09657129,0.0001389,53.2202,21.6644,86.1132,274.0019,2.7801e-05,1.62e-06,0.0,0 STARLINK-3519,1 51890U 22022AQ  23277.29217766  .00000162  00000-0  27801-4 0  9993,2 51890  53.2202  21.6644 0001389  86.1132 274.0019 15.09657129 89290,6915.384,95.386,538.209,536.288,0.0
